[{"OBJECT_NAME":"STARLINK-36474","OBJECT_ID":"2026-003V","EPOCH":"2026-03-09T12:32:13.609536","MEAN_MOTION":15.27605333,"ECCENTRICITY":7.328e-5,"INCLINATION":42.9993,"RA_OF_ASC_NODE":228.4102,"ARG_OF_PERICENTER":250.2873,"MEAN_ANOMALY":109.79,"EPHEMERIS_TYPE":0,"CLASSIFICATION_TYPE":"U","NORAD_CAT_ID":67353,"ELEMENT_SET_NO":999,"REV_AT_EPOCH":879,"BSTAR":0.0015175353,"MEAN_MOTION_DOT":0.00041766,"MEAN_MOTION_DDOT":0},{"OBJECT_NAME":"COSMOS 2251 DEB","OBJECT_ID":"1993-036BXP","EPOCH":"2026-03-04T07:23:49.847712","MEAN_MOTION":15.24789556,"ECCENTRICITY":0.00190834,"INCLINATION":73.9759,"RA_OF_ASC_NODE":64.3004,"ARG_OF_PERICENTER":239.4537,"MEAN_ANOMALY":120.4779,"EPHEMERIS_TYPE":0,"CLASSIFICATION_TYPE":"U","NORAD_CAT_ID":47059,"ELEMENT_SET_NO":999,"REV_AT_EPOCH":9543,"BSTAR":0.0048704033,"MEAN_MOTION_DOT":0.00123422,"MEAN_MOTION_DDOT":0}]
